{
  "type": "FeatureCollection",
  "features": [
    {
      "type": "Feature",
      "properties": {
        "norad_id": 41581,
        "name": "INTELSAT 31 (IS-31)",
        "group": "intelsat",
        "lat": 0.015495335499687391,
        "lon": 97.98935072145632,
        "alt_km": 35788.580140449514,
        "timestamp": "2025-12-19T06:59:43.571824+00:00",
        "meta_object_name": "INTELSAT 31 (IS-31)",
        "meta_object_id": "2016-035A",
        "meta_epoch": "2025-12-18T19:41:32.858016",
        "meta_mean_motion": 1.00271066,
        "meta_eccentricity": 0.00019884,
        "meta_inclination": 0.0228,
        "meta_ra_of_asc_node": 273.6203,
        "meta_arg_of_pericenter": 289.9223,
        "meta_mean_anomaly": 84.472,
        "meta_ephemeris_type": 0,
        "meta_classification_type": "U",
        "meta_norad_cat_id": 41581,
        "meta_element_set_no": 999,
        "meta_rev_at_epoch": 3487,
        "meta_bstar": 0,
        "meta_mean_motion_dot": -1.26e-06,
        "meta_mean_motion_ddot": 0,
        "tle_line1": "1 41581U 16035A   25352.82051919 -.00000126  00000+0  00000+0 0  9994",
        "tle_line2": "2 41581   0.0228 273.6203 0001988 289.9223  84.4720  1.00271066 34877"
      },
      "geometry": {
        "type": "Point",
        "coordinates": [
          97.98935072145632,
          0.015495335499687391
        ]
      }
    },
    {
      "type": "Feature",
      "properties": {
        "norad_id": 41747,
        "name": "INTELSAT 36 (IS-36)",
        "group": "intelsat",
        "lat": -0.03815338925819725,
        "lon": -98.47064355042362,
        "alt_km": 35784.39476054145,
        "timestamp": "2025-12-19T06:59:43.571836+00:00",
        "meta_object_name": "INTELSAT 36 (IS-36)",
        "meta_object_id": "2016-053A",
        "meta_epoch": "2025-12-18T20:14:05.489376",
        "meta_mean_motion": 1.00271742,
        "meta_eccentricity": 0.00014506,
        "meta_inclination": 0.0127,
        "meta_ra_of_asc_node": 10.7493,
        "meta_arg_of_pericenter": 324.8312,
        "meta_mean_anomaly": 124.1251,
        "meta_ephemeris_type": 0,
        "meta_classification_type": "U",
        "meta_norad_cat_id": 41747,
        "meta_element_set_no": 999,
        "meta_rev_at_epoch": 3414,
        "meta_bstar": 0,
        "meta_mean_motion_dot": 1e-08,
        "meta_mean_motion_ddot": 0,
        "tle_line1": "1 41747U 16053A   25352.84311909  .00000001  00000+0  00000+0 0  9999",
        "tle_line2": "2 41747   0.0127  10.7493 0001450 324.8312 124.1251  1.00271742 34144"
      },
      "geometry": {
        "type": "Point",
        "coordinates": [
          -98.47064355042362,
          -0.03815338925819725
        ]
      }
    },
    {
      "type": "Feature",
      "properties": {
        "norad_id": 41945,
        "name": "INTELSAT 32E (IS-32E)",
        "group": "intelsat",
        "lat": 0.0333890438279709,
        "lon": 149.8876084552497,
        "alt_km": 35788.091827263015,
        "timestamp": "2025-12-19T06:59:43.571847+00:00",
        "meta_object_name": "INTELSAT 32E (IS-32E)",
        "meta_object_id": "2017-007B",
        "meta_epoch": "2025-12-18T19:56:16.448352",
        "meta_mean_motion": 1.00269994,
        "meta_eccentricity": 7.005e-05,
        "meta_inclination": 0.0314,
        "meta_ra_of_asc_node": 72.948,
        "meta_arg_of_pericenter": 316.8667,
        "meta_mean_anomaly": 313.7628,
        "meta_ephemeris_type": 0,
        "meta_classification_type": "U",
        "meta_norad_cat_id": 41945,
        "meta_element_set_no": 999,
        "meta_rev_at_epoch": 3241,
        "meta_bstar": 0,
        "meta_mean_motion_dot": -2.44e-06,
        "meta_mean_motion_ddot": 0,
        "tle_line1": "1 41945U 17007B   25352.83074593 -.00000244  00000+0  00000+0 0  9993",
        "tle_line2": "2 41945   0.0314  72.9480 0000700 316.8667 313.7628  1.00269994 32417"
      },
      "geometry": {
        "type": "Point",
        "coordinates": [
          149.8876084552497,
          0.0333890438279709
        ]
      }
    },
    {
      "type": "Feature",
      "properties": {
        "norad_id": 42818,
        "name": "INTELSAT 35E (IS-35E)",
        "group": "intelsat",
        "lat": 0.026394685515786373,
        "lon": 158.54419865208848,
        "alt_km": 35789.881302838745,
        "timestamp": "2025-12-19T06:59:43.571858+00:00",
        "meta_object_name": "INTELSAT 35E (IS-35E)",
        "meta_object_id": "2017-041A",
        "meta_epoch": "2025-12-18T19:58:46.208928",
        "meta_mean_motion": 1.00269639,
        "meta_eccentricity": 0.00018401,
        "meta_inclination": 0.0275,
        "meta_ra_of_asc_node": 18.8807,
        "meta_arg_of_pericenter": 253.6454,
        "meta_mean_anomaly": 80.3606,
        "meta_ephemeris_type": 0,
        "meta_classification_type": "U",
        "meta_norad_cat_id": 42818,
        "meta_element_set_no": 999,
        "meta_rev_at_epoch": 3100,
        "meta_bstar": 0,
        "meta_mean_motion_dot": 0,
        "meta_mean_motion_ddot": 0,
        "tle_line1": "1 42818U 17041A   25352.83247927  .00000000  00000+0  00000+0 0  9993",
        "tle_line2": "2 42818   0.0275  18.8807 0001840 253.6454  80.3606  1.00269639 31006"
      },
      "geometry": {
        "type": "Point",
        "coordinates": [
          158.54419865208848,
          0.026394685515786373
        ]
      }
    },
    {
      "type": "Feature",
      "properties": {
        "norad_id": 42950,
        "name": "INTELSAT 37E (IS-37E)",
        "group": "intelsat",
        "lat": 0.007941455805135396,
        "lon": 175.0121453259485,
        "alt_km": 35785.27000956137,
        "timestamp": "2025-12-19T06:59:43.571870+00:00",
        "meta_object_name": "INTELSAT 37E (IS-37E)",
        "meta_object_id": "2017-059A",
        "meta_epoch": "2025-12-18T20:03:30.754368",
        "meta_mean_motion": 1.0026955,
        "meta_eccentricity": 0.00029565,
        "meta_inclination": 0.0268,
        "meta_ra_of_asc_node": 10.7187,
        "meta_arg_of_pericenter": 247.5659,
        "meta_mean_anomaly": 112.2734,
        "meta_ephemeris_type": 0,
        "meta_classification_type": "U",
        "meta_norad_cat_id": 42950,
        "meta_element_set_no": 999,
        "meta_rev_at_epoch": 3025,
        "meta_bstar": 0,
        "meta_mean_motion_dot": 0,
        "meta_mean_motion_ddot": 0,
        "tle_line1": "1 42950U 17059A   25352.83577262  .00000000  00000+0  00000+0 0  9997",
        "tle_line2": "2 42950   0.0268  10.7187 0002956 247.5659 112.2734  1.00269550 30250"
      },
      "geometry": {
        "type": "Point",
        "coordinates": [
          175.0121453259485,
          0.007941455805135396
        ]
      }
    },
    {
      "type": "Feature",
      "properties": {
        "norad_id": 43632,
        "name": "AZERSPACE 2 (IS-38)",
        "group": "intelsat",
        "lat": -0.044332748113452045,
        "lon": -121.84422385801057,
        "alt_km": 35782.42436146558,
        "timestamp": "2025-12-19T06:59:43.571881+00:00",
        "meta_object_name": "AZERSPACE 2 (IS-38)",
        "meta_object_id": "2018-074A",
        "meta_epoch": "2025-12-18T20:21:29.033280",
        "meta_mean_motion": 1.00272443,
        "meta_eccentricity": 0.00012971,
        "meta_inclination": 0.0272,
        "meta_ra_of_asc_node": 8.6772,
        "meta_arg_of_pericenter": 281.0733,
        "meta_mean_anomaly": 148.4292,
        "meta_ephemeris_type": 0,
        "meta_classification_type": "U",
        "meta_norad_cat_id": 43632,
        "meta_element_set_no": 999,
        "meta_rev_at_epoch": 2663,
        "meta_bstar": 0,
        "meta_mean_motion_dot": 0,
        "meta_mean_motion_ddot": 0,
        "tle_line1": "1 43632U 18074A   25352.84825270  .00000000  00000+0  00000+0 0  9999",
        "tle_line2": "2 43632   0.0272   8.6772 0001297 281.0733 148.4292  1.00272443 26634"
      },
      "geometry": {
        "type": "Point",
        "coordinates": [
          -121.84422385801057,
          -0.044332748113452045
        ]
      }
    },
    {
      "type": "Feature",
      "properties": {
        "norad_id": 43633,
        "name": "HORIZONS-3E",
        "group": "intelsat",
        "lat": 0.005262526184699732,
        "lon": 2.0498322553447883,
        "alt_km": 35785.70445651982,
        "timestamp": "2025-12-19T06:59:43.571893+00:00",
        "meta_object_name": "HORIZONS-3E",
        "meta_object_id": "2018-074B",
        "meta_epoch": "2025-12-18T19:14:03.182208",
        "meta_mean_motion": 1.0027044,
        "meta_eccentricity": 5.722e-05,
        "meta_inclination": 0.0397,
        "meta_ra_of_asc_node": 185.1154,
        "meta_arg_of_pericenter": 104.9885,
        "meta_mean_anomaly": 255.0516,
        "meta_ephemeris_type": 0,
        "meta_classification_type": "U",
        "meta_norad_cat_id": 43633,
        "meta_element_set_no": 999,
        "meta_rev_at_epoch": 2653,
        "meta_bstar": 0,
        "meta_mean_motion_dot": -6e-08,
        "meta_mean_motion_ddot": 0,
        "tle_line1": "1 43633U 18074B   25352.80142572 -.00000006  00000+0  00000+0 0  9990",
        "tle_line2": "2 43633   0.0397 185.1154 0000572 104.9885 255.0516  1.00270440 26532"
      },
      "geometry": {
        "type": "Point",
        "coordinates": [
          2.0498322553447883,
          0.005262526184699732
        ]
      }
    }
  ]
}